{
  "type": "FeatureCollection",
  "features": [
    {
      "type": "Feature",
      "properties": {
        "norad_id": 40894,
        "name": "GAOFEN-9 01",
        "group": "resource",
        "lat": -2.006840115940928,
        "lon": 18.788121923175087,
        "alt_km": 614.8652383698136,
        "timestamp": "2025-12-05T05:43:14.771652+00:00",
        "meta_object_name": "GAOFEN-9 01",
        "meta_object_id": "2015-047A",
        "meta_epoch": "2025-12-04T18:23:23.568864",
        "meta_mean_motion": 14.82391385,
        "meta_eccentricity": 0.0028884,
        "meta_inclination": 97.6553,
        "meta_ra_of_asc_node": 18.0663,
        "meta_arg_of_pericenter": 59.4868,
        "meta_mean_anomaly": 300.9192,
        "meta_ephemeris_type": 0,
        "meta_classification_type": "U",
        "meta_norad_cat_id": 40894,
        "meta_element_set_no": 999,
        "meta_rev_at_epoch": 55138,
        "meta_bstar": 0.00033438,
        "meta_mean_motion_dot": 2.646e-05,
        "meta_mean_motion_ddot": 0,
        "tle_line1": "1 40894U 15047A   25338.76624501  .00002646  00000+0  33438-3 0  9995",
        "tle_line2": "2 40894  97.6553  18.0663 0028884  59.4868 300.9192 14.82391385551386"
      },
      "geometry": {
        "type": "Point",
        "coordinates": [
          18.788121923175087,
          -2.006840115940928
        ]
      }
    },
    {
      "type": "Feature",
      "properties": {
        "norad_id": 41026,
        "name": "YAOGAN-28",
        "group": "resource",
        "lat": 76.44477602237812,
        "lon": -30.734830517562578,
        "alt_km": 480.7345617898509,
        "timestamp": "2025-12-05T05:43:14.771662+00:00",
        "meta_object_name": "YAOGAN-28",
        "meta_object_id": "2015-064A",
        "meta_epoch": "2025-12-04T18:14:51.069984",
        "meta_mean_motion": 15.24142058,
        "meta_eccentricity": 0.0012026,
        "meta_inclination": 97.2801,
        "meta_ra_of_asc_node": 116.7794,
        "meta_arg_of_pericenter": 152.5608,
        "meta_mean_anomaly": 207.6267,
        "meta_ephemeris_type": 0,
        "meta_classification_type": "U",
        "meta_norad_cat_id": 41026,
        "meta_element_set_no": 999,
        "meta_rev_at_epoch": 56103,
        "meta_bstar": 0.00074027,
        "meta_mean_motion_dot": 0.00017999,
        "meta_mean_motion_ddot": 0,
        "tle_line1": "1 41026U 15064A   25338.76031331  .00017999  00000+0  74027-3 0  9991",
        "tle_line2": "2 41026  97.2801 116.7794 0012026 152.5608 207.6267 15.24142058561032"
      },
      "geometry": {
        "type": "Point",
        "coordinates": [
          -30.734830517562578,
          76.44477602237812
        ]
      }
    },
    {
      "type": "Feature",
      "properties": {
        "norad_id": 41038,
        "name": "YAOGAN-29",
        "group": "resource",
        "lat": -52.671618788755865,
        "lon": 171.72747256465956,
        "alt_km": 627.5457066410027,
        "timestamp": "2025-12-05T05:43:14.771672+00:00",
        "meta_object_name": "YAOGAN-29",
        "meta_object_id": "2015-069A",
        "meta_epoch": "2025-12-04T18:57:17.189856",
        "meta_mean_motion": 14.82869169,
        "meta_eccentricity": 6.59e-05,
        "meta_inclination": 98.0227,
        "meta_ra_of_asc_node": 1.9357,
        "meta_arg_of_pericenter": 2.1038,
        "meta_mean_anomaly": 358.0178,
        "meta_ephemeris_type": 0,
        "meta_classification_type": "U",
        "meta_norad_cat_id": 41038,
        "meta_element_set_no": 999,
        "meta_rev_at_epoch": 54181,
        "meta_bstar": 0.00012541,
        "meta_mean_motion_dot": 9.62e-06,
        "meta_mean_motion_ddot": 0,
        "tle_line1": "1 41038U 15069A   25338.78978229  .00000962  00000+0  12541-3 0  9992",
        "tle_line2": "2 41038  98.0227   1.9357 0000659   2.1038 358.0178 14.82869169541810"
      },
      "geometry": {
        "type": "Point",
        "coordinates": [
          171.72747256465956,
          -52.671618788755865
        ]
      }
    },
    {
      "type": "Feature",
      "properties": {
        "norad_id": 41167,
        "name": "KENT RIDGE 1",
        "group": "resource",
        "lat": 5.196355748394403,
        "lon": -73.31020378755547,
        "alt_km": 491.7926632924991,
        "timestamp": "2025-12-05T05:43:14.771681+00:00",
        "meta_object_name": "KENT RIDGE 1",
        "meta_object_id": "2015-077B",
        "meta_epoch": "2025-12-04T13:53:53.103840",
        "meta_mean_motion": 15.21536825,
        "meta_eccentricity": 0.0008627,
        "meta_inclination": 14.9803,
        "meta_ra_of_asc_node": 271.6913,
        "meta_arg_of_pericenter": 15.1583,
        "meta_mean_anomaly": 344.8997,
        "meta_ephemeris_type": 0,
        "meta_classification_type": "U",
        "meta_norad_cat_id": 41167,
        "meta_element_set_no": 999,
        "meta_rev_at_epoch": 55139,
        "meta_bstar": 0.00034598,
        "meta_mean_motion_dot": 8.804e-05,
        "meta_mean_motion_ddot": 0,
        "tle_line1": "1 41167U 15077B   25338.57908685  .00008804  00000+0  34598-3 0  9999",
        "tle_line2": "2 41167  14.9803 271.6913 0008627  15.1583 344.8997 15.21536825551396"
      },
      "geometry": {
        "type": "Point",
        "coordinates": [
          -73.31020378755547,
          5.196355748394403
        ]
      }
    },
    {
      "type": "Feature",
      "properties": {
        "norad_id": 41194,
        "name": "GAOFEN-4",
        "group": "resource",
        "lat": -0.038123539372641735,
        "lon": -94.16983470251256,
        "alt_km": 35782.965716286584,
        "timestamp": "2025-12-05T05:43:14.771695+00:00",
        "meta_object_name": "GAOFEN-4",
        "meta_object_id": "2015-083A",
        "meta_epoch": "2025-12-04T17:39:12.040992",
        "meta_mean_motion": 1.00272933,
        "meta_eccentricity": 0.0003689,
        "meta_inclination": 0.1487,
        "meta_ra_of_asc_node": 80.8427,
        "meta_arg_of_pericenter": 105.3888,
        "meta_mean_anomaly": 258.066,
        "meta_ephemeris_type": 0,
        "meta_classification_type": "U",
        "meta_norad_cat_id": 41194,
        "meta_element_set_no": 999,
        "meta_rev_at_epoch": 3658,
        "meta_bstar": 0,
        "meta_mean_motion_dot": -3.21e-06,
        "meta_mean_motion_ddot": 0,
        "tle_line1": "1 41194U 15083A   25338.73555603 -.00000321  00000+0  00000+0 0  9996",
        "tle_line2": "2 41194   0.1487  80.8427 0003689 105.3888 258.0660  1.00272933 36585"
      },
      "geometry": {
        "type": "Point",
        "coordinates": [
          -94.16983470251256,
          -0.038123539372641735
        ]
      }
    },
    {
      "type": "Feature",
      "properties": {
        "norad_id": 41240,
        "name": "JASON-3",
        "group": "resource",
        "lat": 63.08076791529725,
        "lon": -67.5369392172579,
        "alt_km": 1309.2894221520419,
        "timestamp": "2025-12-05T05:43:14.771706+00:00",
        "meta_object_name": "JASON-3",
        "meta_object_id": "2016-002A",
        "meta_epoch": "2025-12-04T16:08:27.386016",
        "meta_mean_motion": 12.87626112,
        "meta_eccentricity": 0.0007136,
        "meta_inclination": 66.0392,
        "meta_ra_of_asc_node": 174.785,
        "meta_arg_of_pericenter": 270.3157,
        "meta_mean_anomaly": 89.7044,
        "meta_ephemeris_type": 0,
        "meta_classification_type": "U",
        "meta_norad_cat_id": 41240,
        "meta_element_set_no": 999,
        "meta_rev_at_epoch": 46220,
        "meta_bstar": 0.00016946,
        "meta_mean_motion_dot": -1.9e-07,
        "meta_mean_motion_ddot": 0,
        "tle_line1": "1 41240U 16002A   25338.67253919 -.00000019  00000+0  16946-3 0  9992",
        "tle_line2": "2 41240  66.0392 174.7850 0007136 270.3157  89.7044 12.87626112462205"
      },
      "geometry": {
        "type": "Point",
        "coordinates": [
          -67.5369392172579,
          63.08076791529725
        ]
      }
    },
    {
      "type": "Feature",
      "properties": {
        "norad_id": 41335,
        "name": "SENTINEL-3A",
        "group": "resource",
        "lat": 5.81252033895761,
        "lon": 43.47298365892386,
        "alt_km": 804.7015381454212,
        "timestamp": "2025-12-05T05:43:14.771716+00:00",
        "meta_object_name": "SENTINEL-3A",
        "meta_object_id": "2016-011A",
        "meta_epoch": "2025-12-04T16:13:42.256992",
        "meta_mean_motion": 14.26741907,
        "meta_eccentricity": 9.77e-05,
        "meta_inclination": 98.6218,
        "meta_ra_of_asc_node": 43.8042,
        "meta_arg_of_pericenter": 91.378,
        "meta_mean_anomaly": 268.7513,
        "meta_ephemeris_type": 0,
        "meta_classification_type": "U",
        "meta_norad_cat_id": 41335,
        "meta_element_set_no": 999,
        "meta_rev_at_epoch": 51032,
        "meta_bstar": 0.0001486,
        "meta_mean_motion_dot": 3.16e-06,
        "meta_mean_motion_ddot": 0,
        "tle_line1": "1 41335U 16011A   25338.67618353  .00000316  00000+0  14860-3 0  9996",
        "tle_line2": "2 41335  98.6218  43.8042 0000977  91.3780 268.7513 14.26741907510328"
      },
      "geometry": {
        "type": "Point",
        "coordinates": [
          43.47298365892386,
          5.81252033895761
        ]
      }
    }
  ]
}